CCSDS_OMM_VERS = 2.0
CREATION_DATE  = 
ORIGINATOR     = 

OBJECT_NAME    = TRANSPORTER-15AB
OBJECT_ID      = 2025-276AB
CENTER_NAME    = EARTH
REF_FRAME      = TEME
TIME_SYSTEM    = UTC
MEAN_ELEMENT_THEORY = SGP/SGP4

EPOCH          = 2025-12-23T18:07:16.840128
MEAN_MOTION    = 15.17311865
ECCENTRICITY   = .0003821
INCLINATION    = 97.4416
RA_OF_ASC_NODE = 69.3209
ARG_OF_PERICENTER = 245.6214
MEAN_ANOMALY   = 114.4621

EPHEMERIS_TYPE = 0
CLASSIFICATION_TYPE = U
NORAD_CAT_ID   = 66691
ELEMENT_SET_NO = 999
REV_AT_EPOCH   = 379
BSTAR          = .59604E-3
MEAN_MOTION_DOT = .11828E-3
MEAN_MOTION_DDOT = 0

CCSDS_OMM_VERS = 2.0
CREATION_DATE  = 
ORIGINATOR     = 

OBJECT_NAME    = TRANSPORTER-15AC
OBJECT_ID      = 2025-276AC
CENTER_NAME    = EARTH
REF_FRAME      = TEME
TIME_SYSTEM    = UTC
MEAN_ELEMENT_THEORY = SGP/SGP4

EPOCH          = 2025-12-23T03:48:04.245408
MEAN_MOTION    = 15.17403594
ECCENTRICITY   = .00017836
INCLINATION    = 97.4420
RA_OF_ASC_NODE = 68.7460
ARG_OF_PERICENTER = 265.9230
MEAN_ANOMALY   = 94.1800

EPHEMERIS_TYPE = 0
CLASSIFICATION_TYPE = U
NORAD_CAT_ID   = 66692
ELEMENT_SET_NO = 999
REV_AT_EPOCH   = 370
BSTAR          = .37104473E-3
MEAN_MOTION_DOT = .7352E-4
MEAN_MOTION_DDOT = 0

CCSDS_OMM_VERS = 2.0
CREATION_DATE  = 
ORIGINATOR     = 

OBJECT_NAME    = TRANSPORTER-15AD
OBJECT_ID      = 2025-276AD
CENTER_NAME    = EARTH
REF_FRAME      = TEME
TIME_SYSTEM    = UTC
MEAN_ELEMENT_THEORY = SGP/SGP4

EPOCH          = 2025-12-23T14:53:14.957664
MEAN_MOTION    = 15.15704681
ECCENTRICITY   = .0007472
INCLINATION    = 97.4378
RA_OF_ASC_NODE = 69.1805
ARG_OF_PERICENTER = 58.0372
MEAN_ANOMALY   = 302.1586

EPHEMERIS_TYPE = 0
CLASSIFICATION_TYPE = U
NORAD_CAT_ID   = 66693
ELEMENT_SET_NO = 999
REV_AT_EPOCH   = 377
BSTAR          = -.62402E-1
MEAN_MOTION_DOT = -.1099919E-1
MEAN_MOTION_DDOT = 0

CCSDS_OMM_VERS = 2.0
CREATION_DATE  = 
ORIGINATOR     = 

OBJECT_NAME    = YAM-9
OBJECT_ID      = 2025-276AE
CENTER_NAME    = EARTH
REF_FRAME      = TEME
TIME_SYSTEM    = UTC
MEAN_ELEMENT_THEORY = SGP/SGP4

EPOCH          = 2025-12-22T15:05:57.357312
MEAN_MOTION    = 15.17554197
ECCENTRICITY   = .00015162
INCLINATION    = 97.4414
RA_OF_ASC_NODE = 68.2259
ARG_OF_PERICENTER = 262.5734
MEAN_ANOMALY   = 97.5327

EPHEMERIS_TYPE = 0
CLASSIFICATION_TYPE = U
NORAD_CAT_ID   = 66694
ELEMENT_SET_NO = 999
REV_AT_EPOCH   = 362
BSTAR          = .67893264E-3
MEAN_MOTION_DOT = .13577E-3
MEAN_MOTION_DDOT = 0

CCSDS_OMM_VERS = 2.0
CREATION_DATE  = 
ORIGINATOR     = 

OBJECT_NAME    = IRIDE FM1
OBJECT_ID      = 2025-276AF
CENTER_NAME    = EARTH
REF_FRAME      = TEME
TIME_SYSTEM    = UTC
MEAN_ELEMENT_THEORY = SGP/SGP4

EPOCH          = 2025-12-23T14:34:31.679040
MEAN_MOTION    = 15.18276080
ECCENTRICITY   = .0001371
INCLINATION    = 97.4401
RA_OF_ASC_NODE = 69.2066
ARG_OF_PERICENTER = 143.5712
MEAN_ANOMALY   = 216.5616

EPHEMERIS_TYPE = 0
CLASSIFICATION_TYPE = U
NORAD_CAT_ID   = 66695
ELEMENT_SET_NO = 999
REV_AT_EPOCH   = 377
BSTAR          = .59562E-3
MEAN_MOTION_DOT = .12151E-3
MEAN_MOTION_DDOT = 0

CCSDS_OMM_VERS = 2.0
CREATION_DATE  = 
ORIGINATOR     = 

OBJECT_NAME    = IRIDE FM2
OBJECT_ID      = 2025-276AG
CENTER_NAME    = EARTH
REF_FRAME      = TEME
TIME_SYSTEM    = UTC
MEAN_ELEMENT_THEORY = SGP/SGP4

EPOCH          = 2025-12-23T18:03:44.671104
MEAN_MOTION    = 15.17431172
ECCENTRICITY   = .0002546
INCLINATION    = 97.4387
RA_OF_ASC_NODE = 69.3140
ARG_OF_PERICENTER = 264.6745
MEAN_ANOMALY   = 95.4198

EPHEMERIS_TYPE = 0
CLASSIFICATION_TYPE = U
NORAD_CAT_ID   = 66696
ELEMENT_SET_NO = 999
REV_AT_EPOCH   = 379
BSTAR          = .53645E-3
MEAN_MOTION_DOT = .10673E-3
MEAN_MOTION_DDOT = 0

CCSDS_OMM_VERS = 2.0
CREATION_DATE  = 
ORIGINATOR     = 

OBJECT_NAME    = IRIDE FM3
OBJECT_ID      = 2025-276AH
CENTER_NAME    = EARTH
REF_FRAME      = TEME
TIME_SYSTEM    = UTC
MEAN_ELEMENT_THEORY = SGP/SGP4

EPOCH          = 2025-12-23T17:46:05.273184
MEAN_MOTION    = 15.18180448
ECCENTRICITY   = .0001282
INCLINATION    = 97.4389
RA_OF_ASC_NODE = 69.3308
ARG_OF_PERICENTER = 152.1694
MEAN_ANOMALY   = 207.9609

EPHEMERIS_TYPE = 0
CLASSIFICATION_TYPE = U
NORAD_CAT_ID   = 66697
ELEMENT_SET_NO = 999
REV_AT_EPOCH   = 379
BSTAR          = .53017E-3
MEAN_MOTION_DOT = .10776E-3
MEAN_MOTION_DDOT = 0

CCSDS_OMM_VERS = 2.0
CREATION_DATE  = 
ORIGINATOR     = 

OBJECT_NAME    = IRIDE FM4
OBJECT_ID      = 2025-276AJ
CENTER_NAME    = EARTH
REF_FRAME      = TEME
TIME_SYSTEM    = UTC
MEAN_ELEMENT_THEORY = SGP/SGP4

EPOCH          = 2025-12-23T13:21:31.025376
MEAN_MOTION    = 15.16135337
ECCENTRICITY   = .0006052
INCLINATION    = 97.4389
RA_OF_ASC_NODE = 69.1188
ARG_OF_PERICENTER = 175.8151
MEAN_ANOMALY   = 184.3134

EPHEMERIS_TYPE = 0
CLASSIFICATION_TYPE = U
NORAD_CAT_ID   = 66698
ELEMENT_SET_NO = 999
REV_AT_EPOCH   = 376
BSTAR          = .17994E-2
MEAN_MOTION_DOT = .34779E-3
MEAN_MOTION_DDOT = 0

CCSDS_OMM_VERS = 2.0
CREATION_DATE  = 
ORIGINATOR     = 

OBJECT_NAME    = IRIDE FM5
OBJECT_ID      = 2025-276AK
CENTER_NAME    = EARTH
REF_FRAME      = TEME
TIME_SYSTEM    = UTC
MEAN_ELEMENT_THEORY = SGP/SGP4

EPOCH          = 2025-12-23T14:54:48.516768
MEAN_MOTION    = 15.17401280
ECCENTRICITY   = .0003071
INCLINATION    = 97.4401
RA_OF_ASC_NODE = 69.1888
ARG_OF_PERICENTER = 261.2261
MEAN_ANOMALY   = 98.8624

EPHEMERIS_TYPE = 0
CLASSIFICATION_TYPE = U
NORAD_CAT_ID   = 66699
ELEMENT_SET_NO = 999
REV_AT_EPOCH   = 377
BSTAR          = .38811E-4
MEAN_MOTION_DOT = .709E-5
MEAN_MOTION_DDOT = 0

CCSDS_OMM_VERS = 2.0
CREATION_DATE  = 
ORIGINATOR     = 

OBJECT_NAME    = IRIDE FM6
OBJECT_ID      = 2025-276AL
CENTER_NAME    = EARTH
REF_FRAME      = TEME
TIME_SYSTEM    = UTC
MEAN_ELEMENT_THEORY = SGP/SGP4

EPOCH          = 2025-12-23T17:45:08.358048
MEAN_MOTION    = 15.18232895
ECCENTRICITY   = .0001688
INCLINATION    = 97.4421
RA_OF_ASC_NODE = 69.3423
ARG_OF_PERICENTER = 158.4164
MEAN_ANOMALY   = 201.7142

EPHEMERIS_TYPE = 0
CLASSIFICATION_TYPE = U
NORAD_CAT_ID   = 66700
ELEMENT_SET_NO = 999
REV_AT_EPOCH   = 379
BSTAR          = .46684E-3
MEAN_MOTION_DOT = .9494E-4
MEAN_MOTION_DDOT = 0

CCSDS_OMM_VERS = 2.0
CREATION_DATE  = 
ORIGINATOR     = 

OBJECT_NAME    = IRIDE FM7
OBJECT_ID      = 2025-276AM
CENTER_NAME    = EARTH
REF_FRAME      = TEME
TIME_SYSTEM    = UTC
MEAN_ELEMENT_THEORY = SGP/SGP4

EPOCH          = 2025-12-23T18:04:45.641856
MEAN_MOTION    = 15.17455576
ECCENTRICITY   = .0008524
INCLINATION    = 97.4416
RA_OF_ASC_NODE = 69.3229
ARG_OF_PERICENTER = 213.2756
MEAN_ANOMALY   = 146.7943

EPHEMERIS_TYPE = 0
CLASSIFICATION_TYPE = U
NORAD_CAT_ID   = 66701
ELEMENT_SET_NO = 999
REV_AT_EPOCH   = 379
BSTAR          = .25367E-2
MEAN_MOTION_DOT = .51071E-3
MEAN_MOTION_DDOT = 0

CCSDS_OMM_VERS = 2.0
CREATION_DATE  = 
ORIGINATOR     = 

OBJECT_NAME    = IRIDE FM8
OBJECT_ID      = 2025-276AN
CENTER_NAME    = EARTH
REF_FRAME      = TEME
TIME_SYSTEM    = UTC
MEAN_ELEMENT_THEORY = SGP/SGP4

EPOCH          = 2025-12-23T18:04:30.412992
MEAN_MOTION    = 15.17403710
ECCENTRICITY   = .0002899
INCLINATION    = 97.4396
RA_OF_ASC_NODE = 69.3166
ARG_OF_PERICENTER = 260.0247
MEAN_ANOMALY   = 100.0659

EPHEMERIS_TYPE = 0
CLASSIFICATION_TYPE = U
NORAD_CAT_ID   = 66702
ELEMENT_SET_NO = 999
REV_AT_EPOCH   = 379
BSTAR          = .49721E-3
MEAN_MOTION_DOT = .9878E-4
MEAN_MOTION_DDOT = 0

CCSDS_OMM_VERS = 2.0
CREATION_DATE  = 
ORIGINATOR     = 

OBJECT_NAME    = PELICAN-6
OBJECT_ID      = 2025-276AP
CENTER_NAME    = EARTH
REF_FRAME      = TEME
TIME_SYSTEM    = UTC
MEAN_ELEMENT_THEORY = SGP/SGP4

EPOCH          = 2025-12-23T03:48:02.112192
MEAN_MOTION    = 15.17340658
ECCENTRICITY   = .00009601
INCLINATION    = 97.4407
RA_OF_ASC_NODE = 68.7373
ARG_OF_PERICENTER = 243.0945
MEAN_ANOMALY   = 117.0191

EPHEMERIS_TYPE = 0
CLASSIFICATION_TYPE = U
NORAD_CAT_ID   = 66703
ELEMENT_SET_NO = 999
REV_AT_EPOCH   = 370
BSTAR          = .43500698E-3
MEAN_MOTION_DOT = .8617E-4
MEAN_MOTION_DDOT = 0

CCSDS_OMM_VERS = 2.0
CREATION_DATE  = 
ORIGINATOR     = 

OBJECT_NAME    = FLOCK 4H-1
OBJECT_ID      = 2025-276AQ
CENTER_NAME    = EARTH
REF_FRAME      = TEME
TIME_SYSTEM    = UTC
MEAN_ELEMENT_THEORY = SGP/SGP4

EPOCH          = 2025-12-23T19:22:04.799136
MEAN_MOTION    = 15.18779262
ECCENTRICITY   = .0008478
INCLINATION    = 97.4382
RA_OF_ASC_NODE = 69.3895
ARG_OF_PERICENTER = 208.7132
MEAN_ANOMALY   = 151.3636

EPHEMERIS_TYPE = 0
CLASSIFICATION_TYPE = U
NORAD_CAT_ID   = 66704
ELEMENT_SET_NO = 999
REV_AT_EPOCH   = 380
BSTAR          = .26259E-1
MEAN_MOTION_DOT = .584228E-2
MEAN_MOTION_DDOT = 0

CCSDS_OMM_VERS = 2.0
CREATION_DATE  = 
ORIGINATOR     = 

OBJECT_NAME    = FLOCK 4H-2
OBJECT_ID      = 2025-276AR
CENTER_NAME    = EARTH
REF_FRAME      = TEME
TIME_SYSTEM    = UTC
MEAN_ELEMENT_THEORY = SGP/SGP4

EPOCH          = 2025-12-23T17:46:37.687008
MEAN_MOTION    = 15.18145826
ECCENTRICITY   = .0001336
INCLINATION    = 97.4377
RA_OF_ASC_NODE = 69.3257
ARG_OF_PERICENTER = 156.0605
MEAN_ANOMALY   = 204.0691

EPHEMERIS_TYPE = 0
CLASSIFICATION_TYPE = U
NORAD_CAT_ID   = 66705
ELEMENT_SET_NO = 999
REV_AT_EPOCH   = 379
BSTAR          = .39887E-3
MEAN_MOTION_DOT = .808E-4
MEAN_MOTION_DDOT = 0

